{
  "type": "FeatureCollection",
  "features": [
    {
      "type": "Feature",
      "properties": {
        "norad_id": 34681,
        "name": "COSMOS 2251 DEB",
        "group": "cosmos-2251-debris",
        "lat": 63.895303335614656,
        "lon": -45.06895829869691,
        "alt_km": 613.4131115869768,
        "timestamp": "2025-12-18T08:58:43.809716+00:00",
        "meta_object_name": "COSMOS 2251 DEB",
        "meta_object_id": "1993-036YB",
        "meta_epoch": "2025-12-17T21:37:27.016032",
        "meta_mean_motion": 14.83335424,
        "meta_eccentricity": 0.00256106,
        "meta_inclination": 74.0632,
        "meta_ra_of_asc_node": 280.193,
        "meta_arg_of_pericenter": 336.1489,
        "meta_mean_anomaly": 87.2918,
        "meta_ephemeris_type": 0,
        "meta_classification_type": "U",
        "meta_norad_cat_id": 34681,
        "meta_element_set_no": 999,
        "meta_rev_at_epoch": 89347,
        "meta_bstar": 0.0011444579,
        "meta_mean_motion_dot": 9.409e-05,
        "meta_mean_motion_ddot": 0,
        "tle_line1": "1 34681U 93036YB  25351.90100713  .00009409  00000+0  11445-2 0  9998",
        "tle_line2": "2 34681  74.0632 280.1930 0025610 336.1489  87.2918 14.83335424893470"
      },
      "geometry": {
        "type": "Point",
        "coordinates": [
          -45.06895829869691,
          63.895303335614656
        ]
      }
    },
    {
      "type": "Feature",
      "properties": {
        "norad_id": 34682,
        "name": "COSMOS 2251 DEB",
        "group": "cosmos-2251-debris",
        "lat": 46.35375535951223,
        "lon": 89.7172721245813,
        "alt_km": 703.8872006064903,
        "timestamp": "2025-12-18T08:58:43.809726+00:00",
        "meta_object_name": "COSMOS 2251 DEB",
        "meta_object_id": "1993-036YC",
        "meta_epoch": "2025-12-17T17:00:44.441280",
        "meta_mean_motion": 14.58930669,
        "meta_eccentricity": 0.00181126,
        "meta_inclination": 74.0402,
        "meta_ra_of_asc_node": 73.5244,
        "meta_arg_of_pericenter": 205.9682,
        "meta_mean_anomaly": 310.3408,
        "meta_ephemeris_type": 0,
        "meta_classification_type": "U",
        "meta_norad_cat_id": 34682,
        "meta_element_set_no": 999,
        "meta_rev_at_epoch": 88758,
        "meta_bstar": 0.00056050885,
        "meta_mean_motion_dot": 2.605e-05,
        "meta_mean_motion_ddot": 0,
        "tle_line1": "1 34682U 93036YC  25351.70884770  .00002605  00000+0  56051-3 0  9993",
        "tle_line2": "2 34682  74.0402  73.5244 0018112 205.9682 310.3408 14.58930669887588"
      },
      "geometry": {
        "type": "Point",
        "coordinates": [
          89.7172721245813,
          46.35375535951223
        ]
      }
    },
    {
      "type": "Feature",
      "properties": {
        "norad_id": 34683,
        "name": "COSMOS 2251 DEB",
        "group": "cosmos-2251-debris",
        "lat": -42.56051051441331,
        "lon": 66.1882246379016,
        "alt_km": 690.8812305585116,
        "timestamp": "2025-12-18T08:58:43.809736+00:00",
        "meta_object_name": "COSMOS 2251 DEB",
        "meta_object_id": "1993-036YD",
        "meta_epoch": "2025-12-17T17:22:25.957920",
        "meta_mean_motion": 14.64552236,
        "meta_eccentricity": 0.00178975,
        "meta_inclination": 74.03,
        "meta_ra_of_asc_node": 82.684,
        "meta_arg_of_pericenter": 197.7832,
        "meta_mean_anomaly": 290.6788,
        "meta_ephemeris_type": 0,
        "meta_classification_type": "U",
        "meta_norad_cat_id": 34683,
        "meta_element_set_no": 999,
        "meta_rev_at_epoch": 88421,
        "meta_bstar": 0.00093703766,
        "meta_mean_motion_dot": 4.956e-05,
        "meta_mean_motion_ddot": 0,
        "tle_line1": "1 34683U 93036YD  25351.72391155  .00004956  00000+0  93704-3 0  9993",
        "tle_line2": "2 34683  74.0300  82.6840 0017897 197.7832 290.6788 14.64552236884218"
      },
      "geometry": {
        "type": "Point",
        "coordinates": [
          66.1882246379016,
          -42.56051051441331
        ]
      }
    },
    {
      "type": "Feature",
      "properties": {
        "norad_id": 34685,
        "name": "COSMOS 2251 DEB",
        "group": "cosmos-2251-debris",
        "lat": -34.1972654861611,
        "lon": 126.84727985258125,
        "alt_km": 705.5777563504616,
        "timestamp": "2025-12-18T08:58:43.809746+00:00",
        "meta_object_name": "COSMOS 2251 DEB",
        "meta_object_id": "1993-036YF",
        "meta_epoch": "2025-12-17T20:39:47.966976",
        "meta_mean_motion": 14.57552623,
        "meta_eccentricity": 0.001423,
        "meta_inclination": 74.0287,
        "meta_ra_of_asc_node": 139.0447,
        "meta_arg_of_pericenter": 243.0951,
        "meta_mean_anomaly": 269.5903,
        "meta_ephemeris_type": 0,
        "meta_classification_type": "U",
        "meta_norad_cat_id": 34685,
        "meta_element_set_no": 999,
        "meta_rev_at_epoch": 88606,
        "meta_bstar": 0.00082067623,
        "meta_mean_motion_dot": 3.712e-05,
        "meta_mean_motion_ddot": 0,
        "tle_line1": "1 34685U 93036YF  25351.86097184  .00003712  00000+0  82068-3 0  9995",
        "tle_line2": "2 34685  74.0287 139.0447 0014230 243.0951 269.5903 14.57552623886060"
      },
      "geometry": {
        "type": "Point",
        "coordinates": [
          126.84727985258125,
          -34.1972654861611
        ]
      }
    },
    {
      "type": "Feature",
      "properties": {
        "norad_id": 34689,
        "name": "COSMOS 2251 DEB",
        "group": "cosmos-2251-debris",
        "lat": 10.520719197123515,
        "lon": 30.55870296824246,
        "alt_km": 938.5537937674762,
        "timestamp": "2025-12-18T08:58:43.809756+00:00",
        "meta_object_name": "COSMOS 2251 DEB",
        "meta_object_id": "1993-036YK",
        "meta_epoch": "2025-12-15T15:20:16.539648",
        "meta_mean_motion": 14.04491905,
        "meta_eccentricity": 0.02275051,
        "meta_inclination": 74.0901,
        "meta_ra_of_asc_node": 218.3502,
        "meta_arg_of_pericenter": 286.6099,
        "meta_mean_anomaly": 101.262,
        "meta_ephemeris_type": 0,
        "meta_classification_type": "U",
        "meta_norad_cat_id": 34689,
        "meta_element_set_no": 999,
        "meta_rev_at_epoch": 84382,
        "meta_bstar": 0.0020174062,
        "meta_mean_motion_dot": 4.031e-05,
        "meta_mean_motion_ddot": 0,
        "tle_line1": "1 34689U 93036YK  25349.63908032  .00004031  00000+0  20174-2 0  9998",
        "tle_line2": "2 34689  74.0901 218.3502 0227505 286.6099 101.2620 14.04491905843829"
      },
      "geometry": {
        "type": "Point",
        "coordinates": [
          30.55870296824246,
          10.520719197123515
        ]
      }
    },
    {
      "type": "Feature",
      "properties": {
        "norad_id": 34721,
        "name": "COSMOS 2251 DEB",
        "group": "cosmos-2251-debris",
        "lat": 45.79723197211455,
        "lon": -26.276527757816307,
        "alt_km": 1045.7469066723352,
        "timestamp": "2025-12-18T08:58:43.809766+00:00",
        "meta_object_name": "COSMOS 2251 DEB",
        "meta_object_id": "1993-036YP",
        "meta_epoch": "2025-12-16T09:23:35.751264",
        "meta_mean_motion": 13.96869832,
        "meta_eccentricity": 0.02234243,
        "meta_inclination": 73.923,
        "meta_ra_of_asc_node": 319.9132,
        "meta_arg_of_pericenter": 258.2136,
        "meta_mean_anomaly": 262.1516,
        "meta_ephemeris_type": 0,
        "meta_classification_type": "U",
        "meta_norad_cat_id": 34721,
        "meta_element_set_no": 999,
        "meta_rev_at_epoch": 85200,
        "meta_bstar": 0.00097212088,
        "meta_mean_motion_dot": 1.644e-05,
        "meta_mean_motion_ddot": 0,
        "tle_line1": "1 34721U 93036YP  25350.39138601  .00001644  00000+0  97212-3 0  9992",
        "tle_line2": "2 34721  73.9230 319.9132 0223424 258.2136 262.1516 13.96869832852008"
      },
      "geometry": {
        "type": "Point",
        "coordinates": [
          -26.276527757816307,
          45.79723197211455
        ]
      }
    },
    {
      "type": "Feature",
      "properties": {
        "norad_id": 34722,
        "name": "COSMOS 2251 DEB",
        "group": "cosmos-2251-debris",
        "lat": -35.79133617068023,
        "lon": 158.05947949328103,
        "alt_km": 756.9678399682907,
        "timestamp": "2025-12-18T08:58:43.809776+00:00",
        "meta_object_name": "COSMOS 2251 DEB",
        "meta_object_id": "1993-036YQ",
        "meta_epoch": "2025-12-17T08:51:47.074176",
        "meta_mean_motion": 14.11948986,
        "meta_eccentricity": 0.01669112,
        "meta_inclination": 73.8722,
        "meta_ra_of_asc_node": 327.8097,
        "meta_arg_of_pericenter": 252.5525,
        "meta_mean_anomaly": 260.3373,
        "meta_ephemeris_type": 0,
        "meta_classification_type": "U",
        "meta_norad_cat_id": 34722,
        "meta_element_set_no": 999,
        "meta_rev_at_epoch": 86310,
        "meta_bstar": 0.00067650923,
        "meta_mean_motion_dot": 1.384e-05,
        "meta_mean_motion_ddot": 0,
        "tle_line1": "1 34722U 93036YQ  25351.36929484  .00001384  00000+0  67651-3 0  9993",
        "tle_line2": "2 34722  73.8722 327.8097 0166911 252.5525 260.3373 14.11948986863108"
      },
      "geometry": {
        "type": "Point",
        "coordinates": [
          158.05947949328103,
          -35.79133617068023
        ]
      }
    }
  ]
}